[{"OBJECT_NAME":"ITAMSAT (IO-26)","OBJECT_ID":"1993-061D","EPOCH":"2026-03-09T18:51:40.558176","MEAN_MOTION":14.31337175,"ECCENTRICITY":0.00091856,"INCLINATION":98.6929,"RA_OF_ASC_NODE":136.1036,"ARG_OF_PERICENTER":22.8845,"MEAN_ANOMALY":337.2746,"EPHEMERIS_TYPE":0,"CLASSIFICATION_TYPE":"U","NORAD_CAT_ID":22826,"ELEMENT_SET_NO":999,"REV_AT_EPOCH":69309,"BSTAR":7.3937292e-5,"MEAN_MOTION_DOT":1.51e-6,"MEAN_MOTION_DDOT":0},{"OBJECT_NAME":"PEGASUS R\/B","OBJECT_ID":"1996-014B","EPOCH":"2026-03-09T23:50:56.598432","MEAN_MOTION":14.2568792,"ECCENTRICITY":0.00240351,"INCLINATION":90.0027,"RA_OF_ASC_NODE":338.8761,"ARG_OF_PERICENTER":99.6914,"MEAN_ANOMALY":260.6996,"EPHEMERIS_TYPE":0,"CLASSIFICATION_TYPE":"U","NORAD_CAT_ID":23815,"ELEMENT_SET_NO":999,"REV_AT_EPOCH":55952,"BSTAR":8.9461609e-5,"MEAN_MOTION_DOT":2.24e-6,"MEAN_MOTION_DDOT":0}]
